ONEWEB-0230             
1 48769U 21045C   26166.18725725  .00000134  00000+0  32167-3 0  9993
2 48769  87.9002 259.6021 0002020  95.6729 264.4631 13.15548342244405
ONEWEB-0237             
1 48770U 21045D   26166.17615324  .00000189  00000+0  46794-3 0  9998
2 48770  87.9001 259.6061 0001717 102.3233 257.8090 13.15547044244120
ONEWEB-0235             
1 48771U 21045E   26165.99869997 -.00000039  00000+0 -13674-3 0  9992
2 48771  87.9008 259.6270 0001629 108.1262 252.0046 13.15548181244095
ONEWEB-0242             
1 48772U 21045F   26165.99234472 -.00000101  00000+0 -30312-3 0  9995
2 48772  87.9011 259.6251 0001790  98.7852 261.3481 13.15546921244138
ONEWEB-0241             
1 48773U 21045G   26165.52334352 -.00000139  00000+0 -40374-3 0  9993
2 48773  87.8998 259.7370 0001801 113.0036 247.1285 13.15548871243985
ONEWEB-0243             
1 48774U 21045H   26166.01137277  .00000130  00000+0  31075-3 0  9993
2 48774  87.9001 259.6520 0001480  93.4544 266.6755 13.15548403244076
ONEWEB-0222             
1 48775U 21045J   26165.99473277 -.00000057  00000+0 -18620-3 0  9994
2 48775  87.9007 259.6229 0001814 106.6076 253.5254 13.15548926244111
ONEWEB-0244             
1 48776U 21045K   26166.17299669  .00000192  00000+0  47702-3 0  9998
2 48776  87.9014 259.5818 0001827 101.1935 258.9401 13.15548414244701
ONEWEB-0247             
1 48777U 21045L   26166.16982000  .00000222  00000+0  55579-3 0  9991
2 48777  87.9001 259.6150 0001127 102.7956 257.3300 13.15547418244143
ONEWEB-0245             
1 48778U 21045M   26166.16506617  .00000193  00000+0  47790-3 0  9991
2 48778  87.9009 259.5949 0001920 106.5256 253.6085 13.15547731244117
ONEWEB-0229             
1 48779U 21045N   26166.16031786  .00000166  00000+0  40676-3 0  9998
2 48779  87.9009 259.5938 0001841  98.7632 261.3707 13.15548468244146
ONEWEB-0228             
1 48780U 21045P   26166.19371701  .00000049  00000+0  95207-4 0  9998
2 48780  87.9015 259.5797 0001894 102.4284 257.7058 13.15546718244067
ONEWEB-0232             
1 48781U 21045Q   26166.01611404  .00000187  00000+0  46177-3 0  9991
2 48781  87.9013 259.6160 0001970 102.9554 257.1797 13.15549778244367
ONEWEB-0231             
1 48782U 21045R   26165.99393801 -.00000075  00000+0 -23206-3 0  9992
2 48782  87.9004 259.6336 0001800 106.0445 254.0883 13.15548144244053
ONEWEB-0234             
1 48783U 21045S   26166.18394749  .00000162  00000+0  39596-3 0  9991
2 48783  87.9011 259.5775 0002709 111.4194 248.7225 13.15549275244212
ONEWEB-0238             
1 48784U 21045T   26166.18421314  .00000129  00000+0  30905-3 0  9999
2 48784  87.9016 259.5717 0002314 107.2524 252.8859 13.15547401244113
ONEWEB-0240             
1 48785U 21045U   26165.82518368 -.00000197  00000+0 -55737-3 0  9993
2 48785  87.9013 259.6535 0001865 110.4409 249.6922 13.15547357244090
ONEWEB-0246             
1 48786U 21045V   26165.97176071 -.00000195  00000+0 -55241-3 0  9999
2 48786  87.9012 259.6287 0001901  98.6524 261.4821 13.15549234243983
ONEWEB-0210             
1 48787U 21045W   26165.79427611  .00000061  00000+0  12868-3 0  9997
2 48787  87.9011 259.6611 0001152  86.8185 273.3077 13.15550881244003
ONEWEB-0214             
1 48788U 21045X   26166.18329029  .00000137  00000+0  32884-3 0  9990
2 48788  87.9014 259.5802 0001823  89.9219 270.2120 13.15549113244028
ONEWEB-0221             
1 48789U 21045Y   26166.19042479  .00000093  00000+0  21288-3 0  9990
2 48789  87.9012 259.5877 0001787 103.9711 256.1619 13.15548184244115
ONEWEB-0213             
1 48790U 21045Z   26166.17932128  .00000204  00000+0  50850-3 0  9990
2 48790  87.9011 259.5932 0001676 102.4561 257.6757 13.15547162244172
ONEWEB-0212             
1 48791U 21045AA  26166.15635243  .00000165  00000+0  40429-3 0  9994
2 48791  87.9009 259.5921 0002024 101.7185 258.4173 13.15550318244167
ONEWEB-0227             
1 48792U 21045AB  26166.00345299  .00000074  00000+0  16184-3 0  9998
2 48792  87.9006 259.6233 0001922 103.3255 256.8090 13.15548070244098
ONEWEB-0226             
1 48793U 21045AC  26165.99710027 -.00000075  00000+0 -23342-3 0  9998
2 48793  87.9005 259.6293 0001714  99.2851 260.8473 13.15549898244064
ONEWEB-0224             
1 48794U 21045AD  26166.18882777  .00000092  00000+0  21087-3 0  9994
2 48794  87.9003 259.6254 0002328 123.5204 236.6149 13.15546987244017
ONEWEB-0233             
1 48795U 21045AE  26166.19345375  .00000103  00000+0  23965-3 0  9994
2 48795  87.9002 259.6318 0001768 107.9091 252.2232 13.15548753244037
ONEWEB-0190             
1 48796U 21045AF  26166.18090439  .00000133  00000+0  31919-3 0  9993
2 48796  87.9005 259.5961 0001321 109.6944 250.4329 13.15546856244102
ONEWEB-0236             
1 48797U 21045AG  26165.97017740 -.00000118  00000+0 -34818-3 0  9990
2 48797  87.9000 259.6480 0002106 101.8253 258.3114 13.15548100243960
ONEWEB-0248             
1 48798U 21045AH  26165.75467122 -.00000094  00000+0 -28383-3 0  9993
2 48798  87.9009 259.6744 0001735 114.3262 245.8050 13.15547258244097
