OBJECT_NAME,OBJECT_ID,EPOCH,MEAN_MOTION,ECCENTRICITY,INCLINATION,RA_OF_ASC_NODE,ARG_OF_PERICENTER,MEAN_ANOMALY,EPHEMERIS_TYPE,CLASSIFICATION_TYPE,NORAD_CAT_ID,ELEMENT_SET_NO,REV_AT_EPOCH,BSTAR,MEAN_MOTION_DOT,MEAN_MOTION_DDOT
ONEWEB-0230,2021-045C,2026-06-15T04:29:39.026400,13.15548342,.000202,87.9002,259.6021,95.6729,264.4631,0,U,48769,999,24440,.32167E-3,.134E-5,0
ONEWEB-0237,2021-045D,2026-06-15T04:13:39.639936,13.15547044,.0001717,87.9001,259.6061,102.3233,257.8090,0,U,48770,999,24412,.46794E-3,.189E-5,0
ONEWEB-0235,2021-045E,2026-06-14T23:58:07.677408,13.15548181,.0001629,87.9008,259.6270,108.1262,252.0046,0,U,48771,999,24409,-.13674E-3,-.39E-6,0
ONEWEB-0242,2021-045F,2026-06-14T23:48:58.583808,13.15546921,.000179,87.9011,259.6251,98.7852,261.3481,0,U,48772,999,24413,-.30312E-3,-.101E-5,0
ONEWEB-0241,2021-045G,2026-06-14T12:33:36.880128,13.15548871,.00018017,87.8998,259.7370,113.0036,247.1285,0,U,48773,999,24398,-.40373564E-3,-.139E-5,0
ONEWEB-0243,2021-045H,2026-06-15T00:16:22.607328,13.15548403,.000148,87.9001,259.6520,93.4544,266.6755,0,U,48774,999,24407,.31075E-3,.13E-5,0
ONEWEB-0222,2021-045J,2026-06-14T23:52:24.911328,13.15548926,.0001814,87.9007,259.6229,106.6076,253.5254,0,U,48775,999,24411,-.1862E-3,-.57E-6,0
ONEWEB-0244,2021-045K,2026-06-15T04:09:06.914016,13.15548414,.0001827,87.9014,259.5818,101.1935,258.9401,0,U,48776,999,24470,.47702E-3,.192E-5,0
ONEWEB-0247,2021-045L,2026-06-15T04:04:32.448000,13.15547418,.0001127,87.9001,259.6150,102.7956,257.3300,0,U,48777,999,24414,.55579E-3,.222E-5,0
ONEWEB-0245,2021-045M,2026-06-15T03:57:41.717088,13.15547731,.000192,87.9009,259.5949,106.5256,253.6085,0,U,48778,999,24411,.4779E-3,.193E-5,0
ONEWEB-0229,2021-045N,2026-06-15T03:50:51.463104,13.15548468,.0001841,87.9009,259.5938,98.7632,261.3707,0,U,48779,999,24414,.40676E-3,.166E-5,0
ONEWEB-0228,2021-045P,2026-06-15T04:38:57.149664,13.15546718,.0001894,87.9015,259.5797,102.4284,257.7058,0,U,48780,999,24406,.95207E-4,.49E-6,0
ONEWEB-0232,2021-045Q,2026-06-15T00:23:12.253056,13.15549778,.000197,87.9013,259.6160,102.9554,257.1797,0,U,48781,999,24436,.46177E-3,.187E-5,0
ONEWEB-0231,2021-045R,2026-06-14T23:51:16.244064,13.15548144,.00018,87.9004,259.6336,106.0445,254.0883,0,U,48782,999,24405,-.23206E-3,-.75E-6,0
ONEWEB-0234,2021-045S,2026-06-15T04:24:53.063136,13.15549275,.0002709,87.9011,259.5775,111.4194,248.7225,0,U,48783,999,24421,.39596E-3,.162E-5,0
ONEWEB-0238,2021-045T,2026-06-15T04:25:16.015296,13.15547401,.0002314,87.9016,259.5717,107.2524,252.8859,0,U,48784,999,24411,.30905E-3,.129E-5,0
ONEWEB-0240,2021-045U,2026-06-14T19:48:15.869952,13.15547357,.00018654,87.9013,259.6535,110.4409,249.6922,0,U,48785,999,24409,-.55737185E-3,-.197E-5,0
ONEWEB-0246,2021-045V,2026-06-14T23:19:20.125344,13.15549234,.0001901,87.9012,259.6287,98.6524,261.4821,0,U,48786,999,24398,-.55241E-3,-.195E-5,0
ONEWEB-0210,2021-045W,2026-06-14T19:03:45.455904,13.15550881,.00011525,87.9011,259.6611,86.8185,273.3077,0,U,48787,999,24400,.12868029E-3,.61E-6,0
ONEWEB-0214,2021-045X,2026-06-15T04:23:56.281056,13.15549113,.0001823,87.9014,259.5802,89.9219,270.2120,0,U,48788,999,24402,.32884E-3,.137E-5,0
ONEWEB-0221,2021-045Y,2026-06-15T04:34:12.701856,13.15548184,.0001787,87.9012,259.5877,103.9711,256.1619,0,U,48789,999,24411,.21288E-3,.93E-6,0
ONEWEB-0213,2021-045Z,2026-06-15T04:18:13.358592,13.15547162,.0001676,87.9011,259.5932,102.4561,257.6757,0,U,48790,999,24417,.5085E-3,.204E-5,0
ONEWEB-0212,2021-045AA,2026-06-15T03:45:08.849952,13.15550318,.0002024,87.9009,259.5921,101.7185,258.4173,0,U,48791,999,24416,.40429E-3,.165E-5,0
ONEWEB-0227,2021-045AB,2026-06-15T00:04:58.338336,13.15548070,.0001922,87.9006,259.6233,103.3255,256.8090,0,U,48792,999,24409,.16184E-3,.74E-6,0
ONEWEB-0226,2021-045AC,2026-06-14T23:55:49.463328,13.15549898,.0001714,87.9005,259.6293,99.2851,260.8473,0,U,48793,999,24406,-.23342E-3,-.75E-6,0
ONEWEB-0224,2021-045AD,2026-06-15T04:31:54.719328,13.15546987,.0002328,87.9003,259.6254,123.5204,236.6149,0,U,48794,999,24401,.21087E-3,.92E-6,0
ONEWEB-0233,2021-045AE,2026-06-15T04:38:34.404000,13.15548753,.0001768,87.9002,259.6318,107.9091,252.2232,0,U,48795,999,24403,.23965E-3,.103E-5,0
ONEWEB-0190,2021-045AF,2026-06-15T04:20:30.139296,13.15546856,.0001321,87.9005,259.5961,109.6944,250.4329,0,U,48796,999,24410,.31919E-3,.133E-5,0
ONEWEB-0236,2021-045AG,2026-06-14T23:17:03.327360,13.15548100,.0002106,87.9000,259.6480,101.8253,258.3114,0,U,48797,999,24396,-.34818E-3,-.118E-5,0
ONEWEB-0248,2021-045AH,2026-06-14T18:06:43.593408,13.15547258,.00017355,87.9009,259.6744,114.3262,245.8050,0,U,48798,999,24409,-.28383052E-3,-.94E-6,0
